NORAD_CAT_ID,OBJECT_NAME,OBJECT_TYPE,EPOCH,MEAN_MOTION,ECCENTRICITY,INCLINATION,RA_OF_ASC_NODE,ARG_OF_PERICENTER,MEAN_ANOMALY,BSTAR,MEAN_MOTION_DOT,MEAN_MOTION_DDOT,TLE_LINE0,TLE_LINE1,TLE_LINE2,SEMIMAJOR_AXIS,PERIOD,APOGEE,PERIGEE,DECAYED
51722.0,STARLINK-3535,PAYLOAD,2023-10-16 08:25:45,15.08849089,0.000202,53.2181,298.6705,92.6433,267.4791,0.00024087,3.548e-05,0.0,0 STARLINK-3535,1 51722U 22016J   23289.35122215  .00003548  00000-0  24087-3 0  9997,2 51722  53.2181 298.6705 0002020  92.6433 267.4791 15.08849089 92332,6917.853,95.437,541.115,538.32,0.0
51722.0,STARLINK-3535,PAYLOAD,2023-10-16 10:01:08,15.08851225,0.0001974,53.2186,298.3724,89.074,271.0478,0.00030026,4.495e-05,0.0,0 STARLINK-3535,1 51722U 22016J   23289.41746134  .00004495  00000-0  30026-3 0  9998,2 51722  53.2186 298.3724 0001974  89.0740 271.0478 15.08851225 91284,6917.846,95.437,541.077,538.345,0.0
51722.0,STARLINK-3535,PAYLOAD,2023-10-17 09:51:55,15.08849566,0.0001912,53.2177,293.9082,106.0451,254.0752,0.0002861,4.269e-05,0.0,0 STARLINK-3535,1 51722U 22016J   23290.41106196  .00004269  00000-0  28610-3 0  9993,2 51722  53.2177 293.9082 0001912 106.0451 254.0752 15.08849566 92498,6917.851,95.437,541.039,538.393,0.0
51722.0,STARLINK-3535,PAYLOAD,2023-10-18 00:10:24,15.08840998,0.0001866,53.2176,291.2318,97.5778,262.5427,6.4428e-06,-1.86e-06,0.0,0 STARLINK-3535,1 51722U 22016J   23291.00722480 -.00000186  00000-0  64428-5 0  9993,2 51722  53.2176 291.2318 0001866  97.5778 262.5427 15.08840998 91520,6917.877,95.437,541.033,538.451,0.0
51722.0,STARLINK-3535,PAYLOAD,2023-10-18 09:42:42,15.08842962,0.0001778,53.217,289.4481,98.6995,261.4198,0.00016812,2.389e-05,0.0,0 STARLINK-3535,1 51722U 22016J   23291.40466397  .00002389  00000-0  16812-3 0  9997,2 51722  53.2170 289.4481 0001778  98.6995 261.4198 15.08842962 92649,6917.871,95.437,540.966,538.506,0.0
51722.0,STARLINK-3535,PAYLOAD,2023-10-19 09:33:29,15.08855867,0.0001777,53.218,284.9875,99.7659,260.3534,0.00043398,6.628e-05,0.0,0 STARLINK-3535,1 51722U 22016J   23292.39826149  .00006628  00000-0  43398-3 0  9990,2 51722  53.2180 284.9875 0001777  99.7659 260.3534 15.08855867 91734,6917.832,95.437,540.926,538.468,0.0
51722.0,STARLINK-3535,PAYLOAD,2023-10-20 04:38:07,15.08843921,0.0001726,53.2176,281.4167,91.5084,268.6106,0.00019772,2.86e-05,0.0,0 STARLINK-3535,1 51722U 22016J   23293.19314589  .00002860  00000-0  19772-3 0  9992,2 51722  53.2176 281.4167 0001726  91.5084 268.6106 15.08843921 92916,6917.868,95.437,540.927,538.539,0.0
51722.0,STARLINK-3535,PAYLOAD,2023-10-20 09:24:17,15.08842205,0.0001803,53.2178,280.5258,98.8731,261.2465,0.00010557,1.393e-05,0.0,0 STARLINK-3535,1 51722U 22016J   23293.39186562  .00001393  00000-0  10557-3 0  9994,2 51722  53.2178 280.5258 0001803  98.8731 261.2465 15.08842205 91880,6917.874,95.437,540.986,538.491,0.0
51722.0,STARLINK-3535,PAYLOAD,2023-10-21 02:53:32,15.08832399,0.0001966,53.2173,277.2539,112.2238,247.8963,-6.4253e-05,-1.31e-05,0.0,0 STARLINK-3535,1 51722U 22016J   23294.12051233 -.00001310  00000-0 -64253-4 0  9996,2 51722  53.2173 277.2539 0001966 112.2238 247.8963 15.08832399 93050,6917.904,95.438,541.129,538.409,0.0
51722.0,STARLINK-3535,PAYLOAD,2023-10-21 06:04:18,15.08836643,0.0001557,53.2172,276.6641,96.8637,263.2532,1.8893e-05,1.3e-07,0.0,0 STARLINK-3535,1 51722U 22016J   23294.25299151  .00000013  00000-0  18893-4 0  9999,2 51722  53.2172 276.6641 0001557  96.8637 263.2532 15.08836643 92017,6917.891,95.438,540.833,538.679,0.0
51722.0,STARLINK-3535,PAYLOAD,2023-10-21 15:36:37,15.08842649,0.0001665,53.2177,274.8808,100.724,259.394,3.9049e-05,3.34e-06,0.0,0 STARLINK-3535,1 51722U 22016J   23294.65042866  .00000334  00000-0  39049-4 0  9994,2 51722  53.2177 274.8808 0001665 100.7240 259.3940 15.08842649 93138,6917.872,95.437,540.889,538.585,0.0
51722.0,STARLINK-3535,PAYLOAD,2023-10-21 21:58:09,15.08843871,0.0001533,53.2171,273.6905,101.228,258.8885,0.00027508,4.093e-05,0.0,0 STARLINK-3535,1 51722U 22016J   23294.91539030  .00004093  00000-0  27508-3 0  9999,2 51722  53.2171 273.6905 0001533 101.2280 258.8885 15.08843871 92118,6917.869,95.437,540.794,538.673,0.0
51722.0,STARLINK-3535,PAYLOAD,2023-10-22 09:05:51,15.08866668,0.0001543,53.2168,271.6094,104.1456,255.9708,0.00080513,0.00012558,0.0,0 STARLINK-3535,1 51722U 22016J   23295.37906366  .00012558  00000-0  80513-3 0  9990,2 51722  53.2168 271.6094 0001543 104.1456 255.9708 15.08866668 93245,6917.799,95.436,540.731,538.596,0.0
51722.0,STARLINK-3535,PAYLOAD,2023-10-22 15:27:23,15.08849051,0.0001955,53.2173,270.4169,88.0085,272.1131,0.00020462,2.971e-05,0.0,0 STARLINK-3535,1 51722U 22016J   23295.64402666  .00002971  00000-0  20462-3 0  9999,2 51722  53.2173 270.4169 0001955  88.0085 272.1131 15.08849051 93288,6917.853,95.437,541.07,538.365,0.0
51722.0,STARLINK-3535,PAYLOAD,2023-10-23 04:10:29,15.08830634,0.0002034,53.2188,268.0452,92.2448,267.8777,-0.00030055,-5.067e-05,0.0,0 STARLINK-3535,1 51722U 22016J   23296.17395191 -.00005067  00000-0 -30055-3 0  9992,2 51722  53.2188 268.0452 0002034  92.2448 267.8777 15.08830634 93364,6917.909,95.438,541.181,538.367,0.0
51722.0,STARLINK-3535,PAYLOAD,2023-10-23 05:45:52,15.08834767,0.0001704,53.2171,267.7451,89.1573,270.9614,-0.00010503,-1.959e-05,0.0,0 STARLINK-3535,1 51722U 22016J   23296.24019246 -.00001959  00000-0 -10503-3 0  9996,2 51722  53.2171 267.7451 0001704  89.1573 270.9614 15.08834767 92318,6917.896,95.438,540.94,538.583,0.0
51722.0,STARLINK-3535,PAYLOAD,2023-10-24 04:01:16,15.08850265,0.0001519,53.2158,263.5809,93.0785,267.0381,0.00090557,0.00014158,0.0,0 STARLINK-3535,1 51722U 22016J   23297.16755319  .00014158  00000-0  90557-3 0  9996,2 51722  53.2158 263.5809 0001519  93.0785 267.0381 15.08850265 93519,6917.849,95.437,540.765,538.663,0.0
51722.0,STARLINK-3535,PAYLOAD,2023-10-24 07:12:02,15.08855497,0.0001485,53.2157,262.9856,93.0851,267.0311,0.00096817,0.00015161,0.0,0 STARLINK-3535,1 51722U 22016J   23297.30003168  .00015161  00000-0  96817-3 0  9990,2 51722  53.2157 262.9856 0001485  93.0851 267.0311 15.08855497 92478,6917.833,95.437,540.725,538.671,0.0
51722.0,STARLINK-3535,PAYLOAD,2023-10-25 07:02:49,15.08847104,0.0001616,53.2161,258.5219,96.2634,263.8542,0.00047276,7.245e-05,0.0,0 STARLINK-3535,1 51722U 22016J   23298.29363263  .00007245  00000-0  47276-3 0  9993,2 51722  53.2161 258.5219 0001616  96.2634 263.8542 15.08847104 93687,6917.859,95.437,540.842,538.606,0.0
51722.0,STARLINK-3535,PAYLOAD,2023-10-26 03:42:50,15.08851511,0.0001687,53.2167,254.6544,101.9494,258.1687,0.00033957,5.122e-05,0.0,0 STARLINK-3535,1 51722U 22016J   23299.15474970  .00005122  00000-0  33957-3 0  9990,2 51722  53.2167 254.6544 0001687 101.9494 258.1687 15.08851511 93816,6917.845,95.437,540.877,538.543,0.0
51722.0,STARLINK-3535,PAYLOAD,2023-10-27 03:33:37,15.08857968,0.0001371,53.2163,250.1954,94.2687,265.8461,0.00045735,7.002e-05,0.0,0 STARLINK-3535,1 51722U 22016J   23300.14834637  .00007002  00000-0  45735-3 0  9998,2 51722  53.2163 250.1954 0001371  94.2687 265.8461 15.08857968 93969,6917.825,95.436,540.639,538.742,0.0
51722.0,STARLINK-3535,PAYLOAD,2023-10-27 06:44:22,15.08861032,0.0001437,53.2169,249.6021,95.5779,264.5377,0.0004546,6.959e-05,0.0,0 STARLINK-3535,1 51722U 22016J   23300.28082057  .00006959  00000-0  45460-3 0  9999,2 51722  53.2169 249.6021 0001437  95.5779 264.5377 15.08861032 92926,6917.816,95.436,540.675,538.687,0.0
51722.0,STARLINK-3535,PAYLOAD,2023-10-27 21:02:51,15.08838922,0.0001725,53.2167,246.9261,99.5394,260.5793,-9.0537e-07,-3.02e-06,0.0,0 STARLINK-3535,1 51722U 22016J   23300.87699026 -.00000302  00000-0 -90537-6 0  9990,2 51722  53.2167 246.9261 0001725  99.5394 260.5793 15.08838922 94075,6917.884,95.438,540.942,538.555,0.0
51722.0,STARLINK-3535,PAYLOAD,2023-10-28 12:56:43,15.08836335,0.000134,53.217,243.9524,86.5291,273.5855,0.00015191,2.13e-05,0.0,0 STARLINK-3535,1 51722U 22016J   23301.53939491  .00002130  00000-0  15191-3 0  9996,2 51722  53.2170 243.9524 0001340  86.5291 273.5855 15.08836335 93116,6917.892,95.438,540.684,538.83,0.0
51722.0,STARLINK-3535,PAYLOAD,2023-10-28 20:53:39,15.0883996,0.0001223,53.2154,242.4663,79.5028,280.6102,0.00013258,1.823e-05,0.0,0 STARLINK-3535,1 51722U 22016J   23301.87059532  .00001823  00000-0  13258-3 0  9992,2 51722  53.2154 242.4663 0001223  79.5028 280.6102 15.08839960 93162,6917.881,95.438,540.592,538.899,0.0
51722.0,STARLINK-3535,PAYLOAD,2023-10-29 04:50:34,15.08863395,0.0001478,53.2172,240.98,96.0508,264.0652,0.0016729,0.00026454,0.0,0 STARLINK-3535,1 51722U 22016J   23302.20179281  .00026454  00000-0  16729-2 0  9996,2 51722  53.2172 240.9800 0001478  96.0508 264.0652 15.08863395 94275,6917.809,95.436,540.696,538.651,0.0
51722.0,STARLINK-3535,PAYLOAD,2023-10-29 12:47:31,15.0885716,0.0002786,53.2176,239.4928,74.9326,285.1974,0.0010871,0.00017064,0.0,0 STARLINK-3535,1 51722U 22016J   23302.53299803  .00017064  00000-0  10871-2 0  9994,2 51722  53.2176 239.4928 0002786  74.9326 285.1974 15.08857160 94329,6917.828,95.436,541.62,537.766,0.0
51722.0,STARLINK-3535,PAYLOAD,2023-10-30 04:41:22,15.08849109,0.0001472,53.217,236.5203,82.0132,278.1027,0.0020844,0.00033049,0.0,0 STARLINK-3535,1 51722U 22016J   23303.19539728  .00033049  00000-0  20844-2 0  9992,2 51722  53.2170 236.5203 0001472  82.0132 278.1027 15.08849109 94429,6917.853,95.437,540.736,538.699,0.0
51722.0,STARLINK-3535,PAYLOAD,2023-10-30 18:59:51,15.08835505,0.000194,53.2164,233.8429,88.5044,271.617,0.00064103,9.927e-05,0.0,0 STARLINK-3535,1 51722U 22016J   23303.79156383  .00009927  00000-0  64103-3 0  9995,2 51722  53.2164 233.8429 0001940  88.5044 271.6170 15.08835505 94517,6917.894,95.438,541.101,538.417,0.0
51722.0,STARLINK-3535,PAYLOAD,2023-10-31 12:29:05,15.08840475,0.0001742,53.2167,230.5737,81.1835,278.9354,0.00042588,6.496e-05,0.0,0 STARLINK-3535,1 51722U 22016J   23304.52020456  .00006496  00000-0  42588-3 0  9999,2 51722  53.2167 230.5737 0001742  81.1835 278.9354 15.08840475 93563,6917.879,95.438,540.949,538.539,0.0
